{"type": "FeatureCollection", "features": [ {"type": "Feature", "properties": {"norad_id": 66540, "name": "STARLINK-35818", "group": "last-30-days", "lat": -15.640568728294108, "lon": -57.78806321377941, "alt_km": 345.7342093146799, "timestamp": "2025-12-04T03:47:53.336441+00:00", "meta": {"OBJECT_NAME": "STARLINK-35818", "OBJECT_ID": "2025-265AA", "EPOCH": "2025-12-03T12:00:02.998944", "MEAN_MOTION": 15.75077127, "ECCENTRICITY": 0.0001571, "INCLINATION": 42.9997, "RA_OF_ASC_NODE": 108.7214, "ARG_OF_PERICENTER": 256.1828, "MEAN_ANOMALY": 170.3272, "EPHEMERIS_TYPE": 0, "CLASSIFICATION_TYPE": "U", "NORAD_CAT_ID": 66540, "ELEMENT_SET_NO": 999, "REV_AT_EPOCH": 351, "BSTAR": -0.00061719, "MEAN_MOTION_DOT": -0.00094388, "MEAN_MOTION_DDOT": 0}, "tle": {"line1": "1 66540U 25265AA  25337.50003471 -.00094388  00000+0 -61719-3 0  9991", "line2": "2 66540  42.9997 108.7214 0001571 256.1828 170.3272 15.75077127  3515"}}, "geometry": {"type": "Point", "coordinates": [-57.78806321377941, -15.640568728294108]}}, {"type": "Feature", "properties": {"norad_id": 66541, "name": "STARLINK-35796", "group": "last-30-days", "lat": -16.878199490161816, "lon": -56.27543661656777, "alt_km": 345.70939514075144, "timestamp": "2025-12-04T03:47:53.336469+00:00", "meta": {"OBJECT_NAME": "STARLINK-35796", "OBJECT_ID": "2025-265AB", "EPOCH": "2025-12-03T12:00:02.998944", "MEAN_MOTION": 15.75077106, "ECCENTRICITY": 0.000163, "INCLINATION": 42.9999, "RA_OF_ASC_NODE": 108.7166, "ARG_OF_PERICENTER": 250.2478, "MEAN_ANOMALY": 178.175, "EPHEMERIS_TYPE": 0, "CLASSIFICATION_TYPE": "U", "NORAD_CAT_ID": 66541, "ELEMENT_SET_NO": 999, "REV_AT_EPOCH": 351, "BSTAR": -0.00062217, "MEAN_MOTION_DOT": -0.00095137, "MEAN_MOTION_DDOT": 0}, "tle": {"line1": "1 66541U 25265AB  25337.50003471 -.00095137  00000+0 -62217-3 0  9999", "line2": "2 66541  42.9999 108.7166 0001630 250.2478 178.1750 15.75077106  3510"}}, "geometry": {"type": "Point", "coordinates": [-56.27543661656777, -16.878199490161816]}}, {"type": "Feature", "properties": {"norad_id": 66542, "name": "STARLINK-35833", "group": "last-30-days", "lat": -18.112698747911754, "lon": -54.73201306736962, "alt_km": 346.22739841159455, "timestamp": "2025-12-04T03:47:53.336481+00:00", "meta": {"OBJECT_NAME": "STARLINK-35833", "OBJECT_ID": "2025-265AC", "EPOCH": "2025-12-03T12:00:02.998944", "MEAN_MOTION": 15.75067121, "ECCENTRICITY": 0.0001502, "INCLINATION": 42.9999, "RA_OF_ASC_NODE": 108.7122, "ARG_OF_PERICENTER": 277.217, "MEAN_ANOMALY": 153.1242, "EPHEMERIS_TYPE": 0, "CLASSIFICATION_TYPE": "U", "NORAD_CAT_ID": 66542, "ELEMENT_SET_NO": 999, "REV_AT_EPOCH": 351, "BSTAR": -0.0004836, "MEAN_MOTION_DOT": -0.00074203, "MEAN_MOTION_DDOT": 0}, "tle": {"line1": "1 66542U 25265AC  25337.50003471 -.00074203  00000+0 -48360-3 0  9994", "line2": "2 66542  42.9999 108.7122 0001502 277.2170 153.1242 15.75067121  3514"}}, "geometry": {"type": "Point", "coordinates": [-54.73201306736962, -18.112698747911754]}}, {"type": "Feature", "properties": {"norad_id": 66543, "name": "STARLINK-35315", "group": "last-30-days", "lat": -19.34692535217068, "lon": -53.15193209629742, "alt_km": 346.0757027723339, "timestamp": "2025-12-04T03:47:53.336493+00:00", "meta": {"OBJECT_NAME": "STARLINK-35315", "OBJECT_ID": "2025-265AD", "EPOCH": "2025-12-03T12:00:02.998944", "MEAN_MOTION": 15.75049739, "ECCENTRICITY": 0.000141, "INCLINATION": 42.9998, "RA_OF_ASC_NODE": 108.7066, "ARG_OF_PERICENTER": 267.4988, "MEAN_ANOMALY": 164.7647, "EPHEMERIS_TYPE": 0, "CLASSIFICATION_TYPE": "U", "NORAD_CAT_ID": 66543, "ELEMENT_SET_NO": 999, "REV_AT_EPOCH": 340, "BSTAR": -0.00022623, "MEAN_MOTION_DOT": -0.000351, "MEAN_MOTION_DDOT": 0}, "tle": {"line1": "1 66543U 25265AD  25337.50003471 -.00035100  00000+0 -22623-3 0  9992", "line2": "2 66543  42.9998 108.7066 0001410 267.4988 164.7647 15.75049739  3407"}}, "geometry": {"type": "Point", "coordinates": [-53.15193209629742, -19.34692535217068]}}, {"type": "Feature", "properties": {"norad_id": 66544, "name": "STARLINK-35728", "group": "last-30-days", "lat": -20.5336063215657, "lon": -51.591557259705176, "alt_km": 346.08812903482067, "timestamp": "2025-12-04T03:47:53.336504+00:00", "meta": {"OBJECT_NAME": "STARLINK-35728", "OBJECT_ID": "2025-265AE", "EPOCH": "2025-12-03T12:00:02.998944", "MEAN_MOTION": 15.75066647, "ECCENTRICITY": 0.0001621, "INCLINATION": 42.9997, "RA_OF_ASC_NODE": 108.7021, "ARG_OF_PERICENTER": 262.5046, "MEAN_ANOMALY": 171.6704, "EPHEMERIS_TYPE": 0, "CLASSIFICATION_TYPE": "U", "NORAD_CAT_ID": 66544, "ELEMENT_SET_NO": 999, "REV_AT_EPOCH": 351, "BSTAR": -0.00047339, "MEAN_MOTION_DOT": -0.0007266, "MEAN_MOTION_DDOT": 0}, "tle": {"line1": "1 66544U 25265AE  25337.50003471 -.00072660  00000+0 -47339-3 0  9996", "line2": "2 66544  42.9997 108.7021 0001621 262.5046 171.6704 15.75066647  3513"}}, "geometry": {"type": "Point", "coordinates": [-51.591557259705176, -20.5336063215657]}}, {"type": "Feature", "properties": {"norad_id": 66545, "name": "SHIJIAN-30A", "group": "last-30-days", "lat": -28.545033274839433, "lon": -141.57607798604798, "alt_km": 526.2558606879811, "timestamp": "2025-12-04T03:47:53.336518+00:00", "meta": {"OBJECT_NAME": "SHIJIAN-30A", "OBJECT_ID": "2025-266A", "EPOCH": "2025-12-03T14:10:46.310592", "MEAN_MOTION": 15.15342987, "ECCENTRICITY": 0.0012777, "INCLINATION": 51.7997, "RA_OF_ASC_NODE": 15.7184, "ARG_OF_PERICENTER": 323.9107, "MEAN_ANOMALY": 36.1006, "EPHEMERIS_TYPE": 0, "CLASSIFICATION_TYPE": "U", "NORAD_CAT_ID": 66545, "ELEMENT_SET_NO": 999, "REV_AT_EPOCH": 219, "BSTAR": 0.00087622, "MEAN_MOTION_DOT": 0.00016488, "MEAN_MOTION_DDOT": 0}, "tle": {"line1": "1 66545U 25266A   25337.59081378  .00016488  00000+0  87622-3 0  9992", "line2": "2 66545  51.7997  15.7184 0012777 323.9107  36.1006 15.15342987  2194"}}, "geometry": {"type": "Point", "coordinates": [-141.57607798604798, -28.545033274839433]}}, {"type": "Feature", "properties": {"norad_id": 66546, "name": "SHIJIAN-30B", "group": "last-30-days", "lat": -24.812056656079278, "lon": -145.57988207310478, "alt_km": 526.2335701343636, "timestamp": "2025-12-04T03:47:53.336528+00:00", "meta": {"OBJECT_NAME": "SHIJIAN-30B", "OBJECT_ID": "2025-266B", "EPOCH": "2025-12-03T14:12:11.219328", "MEAN_MOTION": 15.15406159, "ECCENTRICITY": 0.0010467, "INCLINATION": 51.798, "RA_OF_ASC_NODE": 15.7228, "ARG_OF_PERICENTER": 326.9002, "MEAN_ANOMALY": 33.1318, "EPHEMERIS_TYPE": 0, "CLASSIFICATION_TYPE": "U", "NORAD_CAT_ID": 66546, "ELEMENT_SET_NO": 999, "REV_AT_EPOCH": 219, "BSTAR": 0.0010158, "MEAN_MOTION_DOT": 0.00019195, "MEAN_MOTION_DDOT": 0}, "tle": {"line1": "1 66546U 25266B   25337.59179652  .00019195  00000+0  10158-2 0  9993", "line2": "2 66546  51.7980  15.7228 0010467 326.9002  33.1318 15.15406159  2192"}}, "geometry": {"type": "Point", "coordinates": [-145.57988207310478, -24.812056656079278]}}, {"type": "Feature", "properties": {"norad_id": 66547, "name": "SHIJIAN-30C", "group": "last-30-days", "lat": -21.819974194703338, "lon": -148.5437848526817, "alt_km": 525.7041735239009, "timestamp": "2025-12-04T03:47:53.336538+00:00", "meta": {"OBJECT_NAME": "SHIJIAN-30C", "OBJECT_ID": "2025-266C", "EPOCH": "2025-12-03T14:13:15.952800", "MEAN_MOTION": 15.15441565, "ECCENTRICITY": 0.0011347, "INCLINATION": 51.7992, "RA_OF_ASC_NODE": 15.7285, "ARG_OF_PERICENTER": 319.096, "MEAN_ANOMALY": 40.9165, "EPHEMERIS_TYPE": 0, "CLASSIFICATION_TYPE": "U", "NORAD_CAT_ID": 66547, "ELEMENT_SET_NO": 999, "REV_AT_EPOCH": 219, "BSTAR": 0.00086783, "MEAN_MOTION_DOT": 0.00016367, "MEAN_MOTION_DDOT": 0}, "tle": {"line1": "1 66547U 25266C   25337.59254575  .00016367  00000+0  86783-3 0  9998", "line2": "2 66547  51.7992  15.7285 0011347 319.0960  40.9165 15.15441565  2199"}}, "geometry": {"type": "Point", "coordinates": [-148.5437848526817, -21.819974194703338]}}, {"type": "Feature", "properties": {"norad_id": 66548, "name": "CZ-2C R/B", "group": "last-30-days", "lat": -51.67804480212787, "lon": -87.01320832152606, "alt_km": 509.8792575865673, "timestamp": "2025-12-04T03:47:53.336548+00:00", "meta": {"OBJECT_NAME": "CZ-2C R/B", "OBJECT_ID": "2025-266D", "EPOCH": "2025-12-03T10:58:33.344832", "MEAN_MOTION": 15.29853683, "ECCENTRICITY": 0.0084747, "INCLINATION": 52.0554, "RA_OF_ASC_NODE": 15.4938, "ARG_OF_PERICENTER": 141.4938, "MEAN_ANOMALY": 219.2135, "EPHEMERIS_TYPE": 0, "CLASSIFICATION_TYPE": "U", "NORAD_CAT_ID": 66548, "ELEMENT_SET_NO": 999, "REV_AT_EPOCH": 219, "BSTAR": 0.00051628, "MEAN_MOTION_DOT": 0.00016531, "MEAN_MOTION_DDOT": 0}, "tle": {"line1": "1 66548U 25266D   25337.45733038  .00016531  00000+0  51628-3 0  9993", "line2": "2 66548  52.0554  15.4938 0084747 141.4938 219.2135 15.29853683  2197"}}, "geometry": {"type": "Point", "coordinates": [-87.01320832152606, -51.67804480212787]}}, {"type": "Feature", "properties": {"norad_id": 66549, "name": "SHIJIAN-28", "group": "last-30-days", "lat": -4.712199644139403, "lon": -104.60673664852331, "alt_km": 29241.45248063171, "timestamp": "2025-12-04T03:47:53.336562+00:00", "meta": {"OBJECT_NAME": "SHIJIAN-28", "OBJECT_ID": "2025-277A", "EPOCH": "2025-11-30T18:06:43.124256", "MEAN_MOTION": 2.28019775, "ECCENTRICITY": 0.7300519, "INCLINATION": 14.4344, "RA_OF_ASC_NODE": 275.4056, "ARG_OF_PERICENTER": 179.5026, "MEAN_ANOMALY": 182.358, "EPHEMERIS_TYPE": 0, "CLASSIFICATION_TYPE": "U", "NORAD_CAT_ID": 66549, "ELEMENT_SET_NO": 999, "REV_AT_EPOCH": 4, "BSTAR": 0.00062085, "MEAN_MOTION_DOT": 6.315e-05, "MEAN_MOTION_DDOT": 0}, "tle": {"line1": "1 66549U 25277A   25334.75466579  .00006315  00000+0  62085-3 0  9997", "line2": "2 66549  14.4344 275.4056 7300519 179.5026 182.3580  2.28019775    48"}}, "geometry": {"type": "Point", "coordinates": [-104.60673664852331, -4.712199644139403]}}]}